<?xml version="1.0" encoding="UTF-8" standalone="yes"?>
<quakeml xmlns="http://quakeml.org/xmlns/quakeml/1.0">
    <eventParameters publicID="smi:geonet.org.nz/quakeml/1.0.1">
        <event publicID="smi:geonet.org.nz/event/3541211g">
            <type>earthquake</type>
            <preferredOriginID>smi:geonet.org.nz/ori/500035/GROPE</preferredOriginID>
            <preferredMagnitudeID>smi:geonet.org.nz/mag/500035/GROPE/ML</preferredMagnitudeID>
            <description>
                <text>felt</text>
                <type>felt report</type>
            </description>
            <origin publicID="smi:geonet.org.nz/ori/500035/GROPE">
                <type>hypocenter</type>
                <evaluationMode>manual</evaluationMode>
                <evaluationStatus>confirmed</evaluationStatus>
                <referenceSystemID>smi:ogc.def.crs/EPSG/4272</referenceSystemID>
                <time>
                    <value>2011-07-06T01:52:11.181Z</value>
                    <uncertainty>0.1711</uncertainty>
                </time>
                <latitude>
                    <value>-41.36678</value>
                    <uncertainty>0.01639</uncertainty>
                </latitude>
                <longitude>
                    <value>173.55481</value>
                    <uncertainty>0.01295</uncertainty>
                </longitude>
                <depth>
                    <value>70.8886</value>
                    <uncertainty>1.6532</uncertainty>
                </depth>
                <depthType>from location</depthType>
                <quality>
                    <azimuthalGap>51</azimuthalGap>
                    <minimumDistance>22.04</minimumDistance>
                    <maximumDistance>251.21</maximumDistance>
                    <usedPhaseCount>35</usedPhaseCount>
                    <usedStationCount>30</usedStationCount>
                    <standardError>0.17864</standardError>
                </quality>
                <arrival weight="0.49">
                    <pickID>smi:geonet.org.nz/pick/8095525</pickID>
                    <phase>PN</phase>
                    <azimuth>318</azimuth>
                    <distance>22.0176</distance>
                    <residual>-0.3</residual>
                </arrival>
                <arrival weight="0.49">
                    <pickID>smi:geonet.org.nz/pick/8095529</pickID>
                    <phase>PN</phase>
                    <azimuth>146</azimuth>
                    <distance>47.1488</distance>
                    <residual>0.414</residual>
                </arrival>
                <arrival weight="0.48">
                    <pickID>smi:geonet.org.nz/pick/8095532</pickID>
                    <phase>PN</phase>
                    <azimuth>93</azimuth>
                    <distance>110.199</distance>
                    <residual>-0.056</residual>
                </arrival>
                <arrival weight="0.44">
                    <pickID>smi:geonet.org.nz/pick/8095533</pickID>
                    <phase>PN</phase>
                    <azimuth>231</azimuth>
                    <distance>69.9448</distance>
                    <residual>-0.098</residual>
                </arrival>
                <arrival weight="0.47">
                    <pickID>smi:geonet.org.nz/pick/8095535</pickID>
                    <phase>PN</phase>
                    <azimuth>78</azimuth>
                    <distance>129.993</distance>
                    <residual>0.153</residual>
                </arrival>
                <arrival weight="0.46">
                    <pickID>smi:geonet.org.nz/pick/8095536</pickID>
                    <phase>PN</phase>
                    <azimuth>64</azimuth>
                    <distance>126.879</distance>
                    <residual>0.696</residual>
                </arrival>
                <arrival weight="0.46">
                    <pickID>smi:geonet.org.nz/pick/8095537</pickID>
                    <phase>PN</phase>
                    <azimuth>100</azimuth>
                    <distance>143.893</distance>
                    <residual>-0.471</residual>
                </arrival>
                <arrival weight="0.43">
                    <pickID>smi:geonet.org.nz/pick/8095538</pickID>
                    <phase>PN</phase>
                    <azimuth>91</azimuth>
                    <distance>156.681</distance>
                    <residual>-0.604</residual>
                </arrival>
                <arrival weight="0.43">
                    <pickID>smi:geonet.org.nz/pick/8095539</pickID>
                    <phase>PN</phase>
                    <azimuth>66</azimuth>
                    <distance>148.786</distance>
                    <residual>0.339</residual>
                </arrival>
                <arrival weight="0.34">
                    <pickID>smi:geonet.org.nz/pick/8095540</pickID>
                    <phase>PN</phase>
                    <azimuth>85</azimuth>
                    <distance>101.970</distance>
                    <residual>0.457</residual>
                </arrival>
                <arrival weight="0.45">
                    <pickID>smi:geonet.org.nz/pick/8095542</pickID>
                    <phase>PN</phase>
                    <azimuth>253</azimuth>
                    <distance>152.010</distance>
                    <residual>0.114</residual>
                </arrival>
                <arrival weight="0.37">
                    <pickID>smi:geonet.org.nz/pick/8095543</pickID>
                    <phase>PN</phase>
                    <azimuth>73</azimuth>
                    <distance>172.694</distance>
                    <residual>-0.431</residual>
                </arrival>
                <arrival weight="0.41">
                    <pickID>smi:geonet.org.nz/pick/8095544</pickID>
                    <phase>PN</phase>
                    <azimuth>83</azimuth>
                    <distance>164.798</distance>
                    <residual>-0.569</residual>
                </arrival>
                <arrival weight="0.31">
                    <pickID>smi:geonet.org.nz/pick/8095545</pickID>
                    <phase>PN</phase>
                    <azimuth>92</azimuth>
                    <distance>178.476</distance>
                    <residual>-0.726</residual>
                </arrival>
                <arrival weight="0.37">
                    <pickID>smi:geonet.org.nz/pick/8095546</pickID>
                    <phase>PN</phase>
                    <azimuth>82</azimuth>
                    <distance>197.936</distance>
                    <residual>-0.87</residual>
                </arrival>
                <arrival weight="0.31">
                    <pickID>smi:geonet.org.nz/pick/8095549</pickID>
                    <phase>PN</phase>
                    <azimuth>214</azimuth>
                    <distance>189.930</distance>
                    <residual>-0.094</residual>
                </arrival>
                <arrival weight="0.36">
                    <pickID>smi:geonet.org.nz/pick/8095550</pickID>
                    <phase>PN</phase>
                    <azimuth>50</azimuth>
                    <distance>196.713</distance>
                    <residual>1.103</residual>
                </arrival>
                <arrival weight="0.13">
                    <pickID>smi:geonet.org.nz/pick/8095551</pickID>
                    <phase>PN</phase>
                    <azimuth>72</azimuth>
                    <distance>206.610</distance>
                    <residual>-0.611</residual>
                </arrival>
                <arrival weight="0.19">
                    <pickID>smi:geonet.org.nz/pick/8095552</pickID>
                    <phase>PN</phase>
                    <azimuth>67</azimuth>
                    <distance>222.511</distance>
                    <residual>-0.485</residual>
                </arrival>
                <arrival weight="0.26">
                    <pickID>smi:geonet.org.nz/pick/8095553</pickID>
                    <phase>PN</phase>
                    <azimuth>61</azimuth>
                    <distance>215.617</distance>
                    <residual>0.201</residual>
                </arrival>
                <arrival weight="0.05">
                    <pickID>smi:geonet.org.nz/pick/8095554</pickID>
                    <phase>PN</phase>
                    <azimuth>72</azimuth>
                    <distance>238.858</distance>
                    <residual>-1.103</residual>
                </arrival>
                <arrival weight="0.04">
                    <pickID>smi:geonet.org.nz/pick/8095556</pickID>
                    <phase>PN</phase>
                    <azimuth>55</azimuth>
                    <distance>249.866</distance>
                    <residual>-0.36</residual>
                </arrival>
                <arrival weight="0.03">
                    <pickID>smi:geonet.org.nz/pick/8095557</pickID>
                    <phase>PN</phase>
                    <azimuth>63</azimuth>
                    <distance>250.200</distance>
                    <residual>-1.012</residual>
                </arrival>
                <arrival weight="0.01">
                    <pickID>smi:geonet.org.nz/pick/8095558</pickID>
                    <phase>PN</phase>
                    <azimuth>209</azimuth>
                    <distance>251.201</distance>
                    <residual>-1.194</residual>
                </arrival>
                <arrival weight="0.05">
                    <pickID>smi:geonet.org.nz/pick/8095560</pickID>
                    <phase>PN</phase>
                    <azimuth>7</azimuth>
                    <distance>233.854</distance>
                    <residual>2.042</residual>
                </arrival>
                <arrival weight="0.14">
                    <pickID>smi:geonet.org.nz/pick/8095567</pickID>
                    <phase>PN</phase>
                    <azimuth>66</azimuth>
                    <distance>187.372</distance>
                    <residual>-0.754</residual>
                </arrival>
                <arrival weight="0.24">
                    <pickID>smi:geonet.org.nz/pick/8095783</pickID>
                    <phase>PN</phase>
                    <azimuth>128</azimuth>
                    <distance>69.6112</distance>
                    <residual>0.865</residual>
                </arrival>
                <arrival weight="0.42">
                    <pickID>smi:geonet.org.nz/pick/8095784</pickID>
                    <phase>SN</phase>
                    <azimuth>318</azimuth>
                    <distance>22.0176</distance>
                    <residual>-0.565</residual>
                </arrival>
                <arrival weight="0.44">
                    <pickID>smi:geonet.org.nz/pick/8095785</pickID>
                    <phase>PN</phase>
                    <azimuth>103</azimuth>
                    <distance>33.2488</distance>
                    <residual>0.052</residual>
                </arrival>
                <arrival weight="0.42">
                    <pickID>smi:geonet.org.nz/pick/8095786</pickID>
                    <phase>SN</phase>
                    <azimuth>103</azimuth>
                    <distance>33.2488</distance>
                    <residual>-0.261</residual>
                </arrival>
                <arrival weight="0.42">
                    <pickID>smi:geonet.org.nz/pick/8095787</pickID>
                    <phase>SN</phase>
                    <azimuth>146</azimuth>
                    <distance>47.1488</distance>
                    <residual>0.247</residual>
                </arrival>
                <arrival weight="0.48">
                    <pickID>smi:geonet.org.nz/pick/8095788</pickID>
                    <phase>PN</phase>
                    <azimuth>74</azimuth>
                    <distance>62.8280</distance>
                    <residual>0.609</residual>
                </arrival>
                <arrival weight="0.42">
                    <pickID>smi:geonet.org.nz/pick/8095789</pickID>
                    <phase>SN</phase>
                    <azimuth>74</azimuth>
                    <distance>62.8280</distance>
                    <residual>0.077</residual>
                </arrival>
                <arrival weight="0.43">
                    <pickID>smi:geonet.org.nz/pick/8095790</pickID>
                    <phase>PN</phase>
                    <azimuth>304</azimuth>
                    <distance>104.973</distance>
                    <residual>0.11</residual>
                </arrival>
                <arrival weight="0.29">
                    <pickID>smi:geonet.org.nz/pick/8095791</pickID>
                    <phase>SN</phase>
                    <azimuth>231</azimuth>
                    <distance>69.9448</distance>
                    <residual>-0.274</residual>
                </arrival>
                <stationMagnitude>
                    <id>smi:geonet.org.nz/stnmag/500035/GROPE/ML/33697048</id>
                    <mag>
                        <value>4.16</value>
                    </mag>
                    <type>ML</type>
                    <waveformID channelCode="EHZ" stationCode="CMWZ" networkCode="NZ"/>
                </stationMagnitude>
                <stationMagnitude>
                    <id>smi:geonet.org.nz/stnmag/500035/GROPE/ML/33697053</id>
                    <mag>
                        <value>4.172</value>
                    </mag>
                    <type>ML</type>
                    <stationAmplitudeID>smi:geonet.org.nz/amp/33697053</stationAmplitudeID>
                    <waveformID channelCode="EHN" stationCode="CMWZ" networkCode="NZ"/>
                </stationMagnitude>
                <stationMagnitude>
                    <id>smi:geonet.org.nz/stnmag/500035/GROPE/ML/33697057</id>
                    <mag>
                        <value>4.111</value>
                    </mag>
                    <type>ML</type>
                    <stationAmplitudeID>smi:geonet.org.nz/amp/33697057</stationAmplitudeID>
                    <waveformID channelCode="EHE" stationCode="CMWZ" networkCode="NZ"/>
                </stationMagnitude>
                <stationMagnitude>
                    <id>smi:geonet.org.nz/stnmag/500035/GROPE/ML/33697084</id>
                    <mag>
                        <value>4.549</value>
                    </mag>
                    <type>ML</type>
                    <waveformID channelCode="EHZ" stationCode="TUWZ" networkCode="NZ"/>
                </stationMagnitude>
                <stationMagnitude>
                    <id>smi:geonet.org.nz/stnmag/500035/GROPE/ML/33697089</id>
                    <mag>
                        <value>4.438</value>
                    </mag>
                    <type>ML</type>
                    <stationAmplitudeID>smi:geonet.org.nz/amp/33697089</stationAmplitudeID>
                    <waveformID channelCode="EHN" stationCode="TUWZ" networkCode="NZ"/>
                </stationMagnitude>
                <stationMagnitude>
                    <id>smi:geonet.org.nz/stnmag/500035/GROPE/ML/33697093</id>
                    <mag>
                        <value>4.408</value>
                    </mag>
                    <type>ML</type>
                    <stationAmplitudeID>smi:geonet.org.nz/amp/33697093</stationAmplitudeID>
                    <waveformID channelCode="EHE" stationCode="TUWZ" networkCode="NZ"/>
                </stationMagnitude>
                <stationMagnitude>
                    <id>smi:geonet.org.nz/stnmag/500035/GROPE/ML/33697096</id>
                    <mag>
                        <value>4.32</value>
                    </mag>
                    <type>ML</type>
                    <waveformID channelCode="EHZ" stationCode="BSWZ" networkCode="NZ"/>
                </stationMagnitude>
                <stationMagnitude>
                    <id>smi:geonet.org.nz/stnmag/500035/GROPE/ML/33697101</id>
                    <mag>
                        <value>3.857</value>
                    </mag>
                    <type>ML</type>
                    <stationAmplitudeID>smi:geonet.org.nz/amp/33697101</stationAmplitudeID>
                    <waveformID channelCode="EHN" stationCode="BSWZ" networkCode="NZ"/>
                </stationMagnitude>
                <stationMagnitude>
                    <id>smi:geonet.org.nz/stnmag/500035/GROPE/ML/33697105</id>
                    <mag>
                        <value>3.998</value>
                    </mag>
                    <type>ML</type>
                    <stationAmplitudeID>smi:geonet.org.nz/amp/33697105</stationAmplitudeID>
                    <waveformID channelCode="EHE" stationCode="BSWZ" networkCode="NZ"/>
                </stationMagnitude>
                <stationMagnitude>
                    <id>smi:geonet.org.nz/stnmag/500035/GROPE/ML/33697108</id>
                    <mag>
                        <value>4.538</value>
                    </mag>
                    <type>ML</type>
                    <waveformID channelCode="EHZ" stationCode="TCW" networkCode="NZ"/>
                </stationMagnitude>
                <stationMagnitude>
                    <id>smi:geonet.org.nz/stnmag/500035/GROPE/ML/33697113</id>
                    <mag>
                        <value>4.081</value>
                    </mag>
                    <type>ML</type>
                    <stationAmplitudeID>smi:geonet.org.nz/amp/33697113</stationAmplitudeID>
                    <waveformID channelCode="EHN" stationCode="TCW" networkCode="NZ"/>
                </stationMagnitude>
                <stationMagnitude>
                    <id>smi:geonet.org.nz/stnmag/500035/GROPE/ML/33697117</id>
                    <mag>
                        <value>4.188</value>
                    </mag>
                    <type>ML</type>
                    <stationAmplitudeID>smi:geonet.org.nz/amp/33697117</stationAmplitudeID>
                    <waveformID channelCode="EHE" stationCode="TCW" networkCode="NZ"/>
                </stationMagnitude>
                <stationMagnitude>
                    <id>smi:geonet.org.nz/stnmag/500035/GROPE/ML/33697132</id>
                    <mag>
                        <value>4.153</value>
                    </mag>
                    <type>ML</type>
                    <waveformID channelCode="EHZ" stationCode="BHW" networkCode="NZ"/>
                </stationMagnitude>
                <stationMagnitude>
                    <id>smi:geonet.org.nz/stnmag/500035/GROPE/ML/33697137</id>
                    <mag>
                        <value>3.847</value>
                    </mag>
                    <type>ML</type>
                    <stationAmplitudeID>smi:geonet.org.nz/amp/33697137</stationAmplitudeID>
                    <waveformID channelCode="EHN" stationCode="BHW" networkCode="NZ"/>
                </stationMagnitude>
                <stationMagnitude>
                    <id>smi:geonet.org.nz/stnmag/500035/GROPE/ML/33697141</id>
                    <mag>
                        <value>3.903</value>
                    </mag>
                    <type>ML</type>
                    <stationAmplitudeID>smi:geonet.org.nz/amp/33697141</stationAmplitudeID>
                    <waveformID channelCode="EHE" stationCode="BHW" networkCode="NZ"/>
                </stationMagnitude>
                <stationMagnitude>
                    <id>smi:geonet.org.nz/stnmag/500035/GROPE/ML/33697168</id>
                    <mag>
                        <value>4.152</value>
                    </mag>
                    <type>ML</type>
                    <waveformID channelCode="EHZ" stationCode="CAW" networkCode="NZ"/>
                </stationMagnitude>
                <stationMagnitude>
                    <id>smi:geonet.org.nz/stnmag/500035/GROPE/ML/33697173</id>
                    <mag>
                        <value>4.007</value>
                    </mag>
                    <type>ML</type>
