<?xml version="1.0" encoding="UTF-8"?>
<seiscomp xmlns="http://geofon.gfz-potsdam.de/ns/seiscomp3-schema/0.7" version="0.7">
  <EventParameters>
    <pick publicID="20130816.023108.04-NZ.CMWZ.10.EHZ">
      <time>
        <value>2013-08-16T02:31:08.048396Z</value>
      </time>
      <waveformID networkCode="NZ" stationCode="CMWZ" locationCode="10" channelCode="EHZ"/>
      <methodID>Trigger</methodID>
      <phaseHint>P</phaseHint>
      <evaluationMode>automatic</evaluationMode>
      <creationInfo>
        <agencyID>WEL(GNS_Primary)</agencyID>
        <author>scautopick@scz-ak.geonet.org.nz</author>
        <creationTime>2013-08-16T02:31:09.259875Z</creationTime>
      </creationInfo>
    </pick>
    <pick publicID="20130816.023110.72-NZ.BSWZ.10.EHZ">
      <time>
        <value>2013-08-16T02:31:10.728393Z</value>
      </time>
      <waveformID networkCode="NZ" stationCode="BSWZ" locationCode="10" channelCode="EHZ"/>
      <methodID>Trigger</methodID>
      <phaseHint>P</phaseHint>
      <evaluationMode>automatic</evaluationMode>
      <creationInfo>
        <agencyID>WEL(GNS_Primary)</agencyID>
        <author>scautopick@scz-ak.geonet.org.nz</author>
        <creationTime>2013-08-16T02:31:13.384362Z</creationTime>
      </creationInfo>
    </pick>
    <pick publicID="20130816.023113.29-NZ.TUWZ.10.EHZ">
      <time>
        <value>2013-08-16T02:31:13.298393Z</value>
      </time>
      <waveformID networkCode="NZ" stationCode="TUWZ" locationCode="10" channelCode="EHZ"/>
      <methodID>Trigger</methodID>
      <phaseHint>P</phaseHint>
      <evaluationMode>automatic</evaluationMode>
      <creationInfo>
        <agencyID>WEL(GNS_Primary)</agencyID>
        <author>scautopick@scz-ak.geonet.org.nz</author>
        <creationTime>2013-08-16T02:31:14.289018Z</creationTime>
      </creationInfo>
    </pick>
    <pick publicID="Pick#20130816023933.571355.15437">
      <time>
        <value>2013-08-16T02:31:21.838311Z</value>
      </time>
      <waveformID networkCode="NZ" stationCode="TUWZ" locationCode="10" channelCode="EHE"/>
      <phaseHint>S</phaseHint>
      <evaluationMode>manual</evaluationMode>
      <creationInfo>
        <agencyID>WEL(GNS_Primary)</agencyID>
        <author>annak@scguiz-ak</author>
        <creationTime>2013-08-16T02:39:33.571582Z</creationTime>
      </creationInfo>
    </pick>
    <pick publicID="20130816.023113.53-NZ.BWRS.20.BNZ">
      <time>
        <value>2013-08-16T02:31:13.53Z</value>
      </time>
      <waveformID networkCode="NZ" stationCode="BWRS" locationCode="20" channelCode="BNZ"/>
      <methodID>Trigger</methodID>
      <phaseHint>P</phaseHint>
      <evaluationMode>automatic</evaluationMode>
      <creationInfo>
        <agencyID>WEL(GNS_Primary)</agencyID>
        <author>scautopick@scz-ak.geonet.org.nz</author>
        <creationTime>2013-08-16T02:31:17.509436Z</creationTime>
      </creationInfo>
    </pick>
    <pick publicID="20130816.023116.49-NZ.TCW.10.EHZ">
      <time>
        <value>2013-08-16T02:31:16.498393Z</value>
      </time>
      <waveformID networkCode="NZ" stationCode="TCW" locationCode="10" channelCode="EHZ"/>
      <methodID>Trigger</methodID>
      <phaseHint>P</phaseHint>
      <evaluationMode>automatic</evaluationMode>
      <creationInfo>
        <agencyID>WEL(GNS_Primary)</agencyID>
        <author>scautopick@scz-ak.geonet.org.nz</author>
        <creationTime>2013-08-16T02:31:20.929857Z</creationTime>
      </creationInfo>
    </pick>
    <pick publicID="Pick#20130816023615.946357.14817">
      <time>
        <value>2013-08-16T02:31:28.236009Z</value>
      </time>
      <waveformID networkCode="NZ" stationCode="TCW" locationCode="10" channelCode="EHE"/>
      <phaseHint>S</phaseHint>
      <evaluationMode>manual</evaluationMode>
      <creationInfo>
        <agencyID>WEL(GNS_Primary)</agencyID>
        <author>annak@scguiz-ak</author>
        <creationTime>2013-08-16T02:36:15.946665Z</creationTime>
      </creationInfo>
    </pick>
    <pick publicID="Pick#20130816023615.94684.14818">
      <time>
        <value>2013-08-16T02:31:31.096265Z</value>
      </time>
      <waveformID networkCode="NZ" stationCode="MKVS" locationCode="20" channelCode="BN2"/>
      <phaseHint>S</phaseHint>
      <evaluationMode>manual</evaluationMode>
      <creationInfo>
        <agencyID>WEL(GNS_Primary)</agencyID>
        <author>annak@scguiz-ak</author>
        <creationTime>2013-08-16T02:36:15.946944Z</creationTime>
      </creationInfo>
    </pick>
    <pick publicID="Pick#20130816023933.57168.15438">
      <time>
        <value>2013-08-16T02:31:22.131427Z</value>
      </time>
      <waveformID networkCode="NZ" stationCode="MKVS" locationCode="20" channelCode="BN2"/>
      <phaseHint>P</phaseHint>
      <evaluationMode>manual</evaluationMode>
      <creationInfo>
        <agencyID>WEL(GNS_Primary)</agencyID>
        <author>annak@scguiz-ak</author>
        <creationTime>2013-08-16T02:39:33.571779Z</creationTime>
      </creationInfo>
    </pick>
    <pick publicID="20130816.023118.92-NZ.BHW.10.EHZ">
      <time>
        <value>2013-08-16T02:31:18.928395Z</value>
      </time>
      <waveformID networkCode="NZ" stationCode="BHW" locationCode="10" channelCode="EHZ"/>
      <methodID>Trigger</methodID>
      <phaseHint>P</phaseHint>
      <evaluationMode>automatic</evaluationMode>
      <creationInfo>
        <agencyID>WEL(GNS_Primary)</agencyID>
        <author>scautopick@scz-ak.geonet.org.nz</author>
        <creationTime>2013-08-16T02:31:20.324422Z</creationTime>
      </creationInfo>
    </pick>
    <pick publicID="20130816.023119.10-NZ.WEL.10.HHZ">
      <time>
        <value>2013-08-16T02:31:19.108394Z</value>
      </time>
      <waveformID networkCode="NZ" stationCode="WEL" locationCode="10" channelCode="HHZ"/>
      <methodID>Trigger</methodID>
      <phaseHint>P</phaseHint>
      <evaluationMode>automatic</evaluationMode>
      <creationInfo>
        <agencyID>WEL(GNS_Primary)</agencyID>
        <author>scautopick@scz-ak.geonet.org.nz</author>
        <creationTime>2013-08-16T02:31:29.179257Z</creationTime>
      </creationInfo>
    </pick>
    <pick publicID="Pick#20130816023615.947066.14819">
      <time>
        <value>2013-08-16T02:31:34.005584Z</value>
      </time>
      <waveformID networkCode="NZ" stationCode="NEWS" locationCode="20" channelCode="BN2"/>
      <phaseHint>S</phaseHint>
      <evaluationMode>manual</evaluationMode>
      <creationInfo>
        <agencyID>WEL(GNS_Primary)</agencyID>
        <author>annak@scguiz-ak</author>
        <creationTime>2013-08-16T02:36:15.94717Z</creationTime>
      </creationInfo>
    </pick>
    <pick publicID="Pick#20130816023807.506159.15095">
      <time>
        <value>2013-08-16T02:31:25.802108Z</value>
      </time>
      <waveformID networkCode="NZ" stationCode="NEWS" locationCode="20" channelCode="BN2"/>
      <phaseHint>P</phaseHint>
      <evaluationMode>manual</evaluationMode>
      <creationInfo>
        <agencyID>WEL(GNS_Primary)</agencyID>
        <author>annak@scguiz-ak</author>
        <creationTime>2013-08-16T02:38:07.506316Z</creationTime>
      </creationInfo>
    </pick>
    <pick publicID="20130816.023120.33-NZ.PVCS.20.BNZ">
      <time>
        <value>2013-08-16T02:31:20.339592Z</value>
      </time>
      <waveformID networkCode="NZ" stationCode="PVCS" locationCode="20" channelCode="BNZ"/>
      <methodID>Trigger</methodID>
      <phaseHint>P</phaseHint>
      <evaluationMode>automatic</evaluationMode>
      <creationInfo>
        <agencyID>WEL(GNS_Primary)</agencyID>
        <author>scautopick@scz-ak.geonet.org.nz</author>
        <creationTime>2013-08-16T02:31:27.872459Z</creationTime>
      </creationInfo>
    </pick>
    <pick publicID="20130816.023121.58-NZ.WANS.20.BNZ">
      <time>
        <value>2013-08-16T02:31:21.589999Z</value>
      </time>
      <waveformID networkCode="NZ" stationCode="WANS" locationCode="20" channelCode="BNZ"/>
      <methodID>Trigger</methodID>
      <phaseHint>P</phaseHint>
      <evaluationMode>automatic</evaluationMode>
      <creationInfo>
        <agencyID>WEL(GNS_Primary)</agencyID>
        <author>scautopick@scz-ak.geonet.org.nz</author>
        <creationTime>2013-08-16T02:31:23.243975Z</creationTime>
      </creationInfo>
    </pick>
    <pick publicID="20130816.023121.03-NZ.NNZ.10.HHZ">
      <time>
        <value>2013-08-16T02:31:21.03839Z</value>
      </time>
      <waveformID networkCode="NZ" stationCode="NNZ" locationCode="10" channelCode="HHZ"/>
      <methodID>Trigger</methodID>
      <phaseHint>P</phaseHint>
      <evaluationMode>automatic</evaluationMode>
      <creationInfo>
        <agencyID>WEL(GNS_Primary)</agencyID>
        <author>scautopick@scz-ak.geonet.org.nz</author>
        <creationTime>2013-08-16T02:31:37.431083Z</creationTime>
      </creationInfo>
    </pick>
    <pick publicID="20130816.023121.60-NZ.FAIS.20.BNZ">
      <time>
        <value>2013-08-16T02:31:21.609999Z</value>
      </time>
      <waveformID networkCode="NZ" stationCode="FAIS" locationCode="20" channelCode="BNZ"/>
      <methodID>Trigger</methodID>
      <phaseHint>P</phaseHint>
      <evaluationMode>automatic</evaluationMode>
      <creationInfo>
        <agencyID>WEL(GNS_Primary)</agencyID>
        <author>scautopick@scz-ak.geonet.org.nz</author>
        <creationTime>2013-08-16T02:31:25.657521Z</creationTime>
      </creationInfo>
    </pick>
    <pick publicID="20130816.023123.08-NZ.KHZ.10.HHZ">
      <time>
        <value>2013-08-16T02:31:23.088393Z</value>
      </time>
      <waveformID networkCode="NZ" stationCode="KHZ" locationCode="10" channelCode="HHZ"/>
      <methodID>Trigger</methodID>
      <phaseHint>P</phaseHint>
      <evaluationMode>automatic</evaluationMode>
      <creationInfo>
        <agencyID>WEL(GNS_Primary)</agencyID>
        <author>scautopick@scz-ak.geonet.org.nz</author>
        <creationTime>2013-08-16T02:31:28.878578Z</creationTime>
      </creationInfo>
    </pick>
    <pick publicID="20130816.023123.55-NZ.PLWZ.10.EHZ">
      <time>
        <value>2013-08-16T02:31:23.558394Z</value>
      </time>
      <waveformID networkCode="NZ" stationCode="PLWZ" locationCode="10" channelCode="EHZ"/>
      <methodID>Trigger</methodID>
      <phaseHint>P</phaseHint>
      <evaluationMode>automatic</evaluationMode>
      <creationInfo>
        <agencyID>WEL(GNS_Primary)</agencyID>
        <author>scautopick@scz-ak.geonet.org.nz</author>
        <creationTime>2013-08-16T02:31:26.168526Z</creationTime>
      </creationInfo>
    </pick>
    <pick publicID="20130816.023123.83-NZ.MSWZ.10.EHZ">
      <time>
        <value>2013-08-16T02:31:23.838396Z</value>
      </time>
      <waveformID networkCode="NZ" stationCode="MSWZ" locationCode="10" channelCode="EHZ"/>
      <methodID>Trigger</methodID>
      <phaseHint>P</phaseHint>
      <evaluationMode>automatic</evaluationMode>
      <creationInfo>
        <agencyID>WEL(GNS_Primary)</agencyID>
        <author>scautopick@scz-ak.geonet.org.nz</author>
        <creationTime>2013-08-16T02:31:26.163279Z</creationTime>
      </creationInfo>
    </pick>
    <pick publicID="20130816.023124.29-NZ.CAW.10.EHZ">
      <time>
        <value>2013-08-16T02:31:24.29839Z</value>
      </time>
      <waveformID networkCode="NZ" stationCode="CAW" locationCode="10" channelCode="EHZ"/>
      <methodID>Trigger</methodID>
      <phaseHint>P</phaseHint>
      <evaluationMode>automatic</evaluationMode>
      <creationInfo>
        <agencyID>WEL(GNS_Primary)</agencyID>
        <author>scautopick@scz-ak.geonet.org.nz</author>
        <creationTime>2013-08-16T02:31:35.221129Z</creationTime>
      </creationInfo>
    </pick>
    <pick publicID="20130816.023124.26-NZ.THZ.10.HHZ">
      <time>
        <value>2013-08-16T02:31:24.262884Z</value>
      </time>
      <waveformID networkCode="NZ" stationCode="THZ" locationCode="10" channelCode="HHZ"/>
      <methodID>Trigger</methodID>
      <phaseHint>P</phaseHint>
      <evaluationMode>automatic</evaluationMode>
      <creationInfo>
        <agencyID>WEL(GNS_Primary)</agencyID>
        <author>scautopick@scz-ak.geonet.org.nz</author>
        <creationTime>2013-08-16T02:31:35.723574Z</creationTime>
      </creationInfo>
    </pick>
    <pick publicID="20130816.023123.97-NZ.DUWZ.10.EHZ">
      <time>
        <value>2013-08-16T02:31:23.978392Z</value>
      </time>
      <waveformID networkCode="NZ" stationCode="DUWZ" locationCode="10" channelCode="EHZ"/>
      <methodID>Trigger</methodID>
      <phaseHint>P</phaseHint>
      <evaluationMode>automatic</evaluationMode>
      <creationInfo>
        <agencyID>WEL(GNS_Primary)</agencyID>
        <author>scautopick@scz-ak.geonet.org.nz</author>
        <creationTime>2013-08-16T02:31:31.091647Z</creationTime>
      </creationInfo>
    </pick>
    <pick publicID="20130816.023126.09-NZ.PAWZ.10.EHZ">
      <time>
        <value>2013-08-16T02:31:26.098393Z</value>
      </time>
      <waveformID networkCode="NZ" stationCode="PAWZ" locationCode="10" channelCode="EHZ"/>
      <methodID>Trigger</methodID>
      <phaseHint>P</phaseHint>
      <evaluationMode>automatic</evaluationMode>
      <creationInfo>
        <agencyID>WEL(GNS_Primary)</agencyID>
        <author>scautopick@scz-ak.geonet.org.nz</author>
        <creationTime>2013-08-16T02:31:27.268517Z</creationTime>
      </creationInfo>
    </pick>
    <pick publicID="20130816.023128.13-NZ.MTW.10.EHZ">
      <time>
        <value>2013-08-16T02:31:28.138388Z</value>
      </time>
      <waveformID networkCode="NZ" stationCode="MTW" locationCode="10" channelCode="EHZ"/>
      <methodID>Trigger</methodID>
      <phaseHint>P</phaseHint>
      <evaluationMode>automatic</evaluationMode>
      <creationInfo>
        <agencyID>WEL(GNS_Primary)</agencyID>
        <author>scautopick@scz-ak.geonet.org.nz</author>
        <creationTime>2013-08-16T02:31:31.294294Z</creationTime>
      </creationInfo>
    </pick>
    <pick publicID="20130816.023128.46-NZ.OGWZ.10.EHZ">
      <time>
        <value>2013-08-16T02:31:28.468396Z</value>
      </time>
      <waveformID networkCode="NZ" stationCode="OGWZ" locationCode="10" channelCode="EHZ"/>
      <methodID>Trigger</methodID>
      <phaseHint>P</phaseHint>
      <evaluationMode>automatic</evaluationMode>
      <creationInfo>
        <agencyID>WEL(GNS_Primary)</agencyID>
        <author>scautopick@scz-ak.geonet.org.nz</author>
        <creationTime>2013-08-16T02:31:31.096581Z</creationTime>
      </creationInfo>
    </pick>
    <pick publicID="20130816.023128.32-NZ.TRWZ.10.EHZ">
      <time>
        <value>2013-08-16T02:31:28.32839Z</value>
      </time>
      <waveformID networkCode="NZ" stationCode="TRWZ" locationCode="10" channelCode="EHZ"/>
      <methodID>Trigger</methodID>
      <phaseHint>P</phaseHint>
      <evaluationMode>automatic</evaluationMode>
      <creationInfo>
        <agencyID>WEL(GNS_Primary)</agencyID>
        <author>scautopick@scz-ak.geonet.org.nz</author>
        <creationTime>2013-08-16T02:31:32.299673Z</creationTime>
      </creationInfo>
    </pick>
    <pick publicID="20130816.023131.31-NZ.HSES.20.BNZ">
      <time>
        <value>2013-08-16T02:31:31.31Z</value>
      </time>
      <waveformID networkCode="NZ" stationCode="HSES" locationCode="20" channelCode="BNZ"/>
      <methodID>Trigger</methodID>
      <phaseHint>P</phaseHint>
      <evaluationMode>automatic</evaluationMode>
      <creationInfo>
        <agencyID>WEL(GNS_Primary)</agencyID>
        <author>scautopick@scz-ak.geonet.org.nz</author>
        <creationTime>2013-08-16T02:31:44.770943Z</creationTime>
      </creationInfo>
    </pick>
    <pick publicID="20130816.023130.54-NZ.HOWZ.10.EHZ">
      <time>
        <value>2013-08-16T02:31:30.548393Z</value>
      </time>
      <waveformID networkCode="NZ" stationCode="HOWZ" locationCode="10" channelCode="EHZ"/>
      <methodID>Trigger</methodID>
      <phaseHint>P</phaseHint>
      <evaluationMode>automatic</evaluationMode>
      <creationInfo>
        <agencyID>WEL(GNS_Primary)</agencyID>
        <author>scautopick@scz-ak.geonet.org.nz</author>
        <creationTime>2013-08-16T02:31:34.318438Z</creationTime>
      </creationInfo>
    </pick>
    <pick publicID="20130816.023131.82-NZ.TMWZ.10.EHZ">
      <time>
        <value>2013-08-16T02:31:31.828393Z</value>
      </time>
      <waveformID networkCode="NZ" stationCode="TMWZ" locationCode="10" channelCode="EHZ"/>
      <methodID>Trigger</methodID>
      <phaseHint>P</phaseHint>
      <evaluationMode>automatic</evaluationMode>
      <creationInfo>
        <agencyID>WEL(GNS_Primary)</agencyID>
        <author>scautopick@scz-ak.geonet.org.nz</author>
        <creationTime>2013-08-16T02:31:34.314497Z</creationTime>
      </creationInfo>
    </pick>
    <pick publicID="20130816.023133.08-NZ.GVZ.10.HHZ">
      <time>
        <value>2013-08-16T02:31:33.088394Z</value>
      </time>
      <waveformID networkCode="NZ" stationCode="GVZ" locationCode="10" channelCode="HHZ"/>
      <methodID>Trigger</methodID>
      <phaseHint>P</phaseHint>
      <evaluationMode>automatic</evaluationMode>
      <creationInfo>
        <agencyID>WEL(GNS_Primary)</agencyID>
        <author>scautopick@scz-ak.geonet.org.nz</author>
        <creationTime>2013-08-16T02:31:41.553233Z</creationTime>
      </creationInfo>
    </pick>
    <pick publicID="20130816.023133.30-NZ.MRZ.10.HHZ">
      <time>
        <value>2013-08-16T02:31:33.308393Z</value>
      </time>
      <waveformID networkCode="NZ" stationCode="MRZ" locationCode="10" channelCode="HHZ"/>
      <methodID>Trigger</methodID>
      <phaseHint>P</phaseHint>
      <evaluationMode>automatic</evaluationMode>
      <creationInfo>
        <agencyID>WEL(GNS_Primary)</agencyID>
        <author>scautopick@scz-ak.geonet.org.nz</author>
        <creationTime>2013-08-16T02:31:36.627836Z</creationTime>
      </creationInfo>
    </pick>
    <pick publicID="20130816.023134.36-NZ.QRZ.10.HHZ">
      <time>
        <value>2013-08-16T02:31:34.368393Z</value>
      </time>
      <waveformID networkCode="NZ" stationCode="QRZ" locationCode="10" channelCode="HHZ"/>
      <methodID>Trigger</methodID>
      <phaseHint>P</phaseHint>
      <evaluationMode>automatic</evaluationMode>
      <creationInfo>
        <agencyID>WEL(GNS_Primary)</agencyID>
        <author>scautopick@scz-ak.geonet.org.nz</author>
        <creationTime>2013-08-16T02:31:39.038776Z</creationTime>
      </creationInfo>
    </pick>
    <pick publicID="20130816.023134.41-NZ.TIWZ.10.EHZ">
      <time>
        <value>2013-08-16T02:31:34.418396Z</value>
      </time>
      <waveformID networkCode="NZ" stationCode="TIWZ" locationCode="10" channelCode="EHZ"/>
      <methodID>Trigger</methodID>
      <phaseHint>P</phaseHint>
      <evaluationMode>automatic</evaluationMode>
      <creationInfo>
        <agencyID>WEL(GNS_Primary)</agencyID>
        <author>scautopick@scz-ak.geonet.org.nz</author>
        <creationTime>2013-08-16T02:31:38.335719Z</creationTime>
      </creationInfo>
    </pick>
    <pick publicID="20130816.023135.85-NZ.WAKC.20.BNZ">
      <time>
        <value>2013-08-16T02:31:35.85Z</value>
      </time>
      <waveformID networkCode="NZ" stationCode="WAKC" locationCode="20" channelCode="BNZ"/>
      <methodID>Trigger</methodID>
      <phaseHint>P</phaseHint>
      <evaluationMode>automatic</evaluationMode>
      <creationInfo>
        <agencyID>WEL(GNS_Primary)</agencyID>
        <author>scautopick@scz-ak.geonet.org.nz</author>
        <creationTime>2013-08-16T02:31:38.636889Z</creationTime>
      </creationInfo>
    </pick>
    <pick publicID="20130816.023136.70-NZ.CPWZ.10.EHZ">
      <time>
        <value>2013-08-16T02:31:36.708394Z</value>
      </time>
      <waveformID networkCode="NZ" stationCode="CPWZ" locationCode="10" channelCode="EHZ"/>
      <methodID>Trigger</methodID>
      <phaseHint>P</phaseHint>
      <evaluationMode>automatic</evaluationMode>
      <creationInfo>
        <agencyID>WEL(GNS_Primary)</agencyID>
        <author>scautopick@scz-ak.geonet.org.nz</author>
