<?xml version="1.0" encoding="UTF-8"?>

<seiscomp xmlns="http://geofon.gfz-potsdam.de/ns/seiscomp3-schema/0.7" version="0.7">
  <EventParameters>
    <pick publicID="7928248">
      <time>
        <value>2011-05-03T00:01:09.517Z</value>
        <upperUncertainty>0.1</upperUncertainty>
      </time>
      <waveformID channelCode="HHZ" stationCode="LTZ" networkCode="NZ"/>
      <phaseHint>PG</phaseHint>
      <polarity>positive</polarity>
      <evaluationMode>automatic</evaluationMode>
      <evaluationStatus>confirmed</evaluationStatus>
    </pick>
    <pick publicID="7925719">
      <time>
        <value>2011-05-03T00:01:34.628Z</value>
        <lowerUncertainty>0.5</lowerUncertainty>
        <upperUncertainty>1.0</upperUncertainty>
      </time>
      <waveformID channelCode="HHZ" stationCode="LBZ" networkCode="NZ"/>
      <phaseHint>PN</phaseHint>
      <evaluationMode>manual</evaluationMode>
      <evaluationStatus>rejected</evaluationStatus>
    </pick>
    <pick publicID="8146784">
      <time>
        <value>2011-05-03T00:01:12.437Z</value>
        <lowerUncertainty>0.1</lowerUncertainty>
        <upperUncertainty>0.25</upperUncertainty>
      </time>
      <waveformID channelCode="HHZ" stationCode="CRLZ" networkCode="NZ"/>
      <phaseHint>P*</phaseHint>
      <evaluationMode>manual</evaluationMode>
      <evaluationStatus>confirmed</evaluationStatus>
    </pick>
    <pick publicID="7925709">
      <time>
        <value>2011-05-03T00:01:04.068Z</value>
        <upperUncertainty>0.1</upperUncertainty>
      </time>
      <waveformID channelCode="HHZ" stationCode="OXZ" networkCode="NZ"/>
      <phaseHint>PG</phaseHint>
      <evaluationMode>automatic</evaluationMode>
      <evaluationStatus>confirmed</evaluationStatus>
    </pick>
    <pick publicID="7925720">
      <time>
        <value>2011-05-03T00:01:14.288Z</value>
        <upperUncertainty>0.1</upperUncertainty>
      </time>
      <waveformID channelCode="HHZ" stationCode="MQZ" networkCode="NZ"/>
      <phaseHint>P*</phaseHint>
      <polarity>negative</polarity>
      <evaluationMode>automatic</evaluationMode>
      <evaluationStatus>confirmed</evaluationStatus>
    </pick>
    <pick publicID="7925712">
      <time>
        <value>2011-05-03T00:01:17.309Z</value>
        <lowerUncertainty>0.25</lowerUncertainty>
        <upperUncertainty>0.5</upperUncertainty>
      </time>
      <waveformID channelCode="HHZ" stationCode="RPZ" networkCode="NZ"/>
      <phaseHint>P*</phaseHint>
      <evaluationMode>automatic</evaluationMode>
      <evaluationStatus>confirmed</evaluationStatus>
    </pick>
    <pick publicID="7925710">
      <time>
        <value>2011-05-03T00:01:06.598Z</value>
        <lowerUncertainty>0.25</lowerUncertainty>
        <upperUncertainty>0.5</upperUncertainty>
      </time>
      <waveformID channelCode="HHN" stationCode="OXZ" networkCode="NZ"/>
      <phaseHint>SG</phaseHint>
      <evaluationMode>manual</evaluationMode>
      <evaluationStatus>confirmed</evaluationStatus>
    </pick>
    <pick publicID="7925718">
      <time>
        <value>2011-05-03T00:01:30.148Z</value>
        <lowerUncertainty>0.5</lowerUncertainty>
        <upperUncertainty>1.0</upperUncertainty>
      </time>
      <waveformID channelCode="HHZ" stationCode="FOZ" networkCode="NZ"/>
      <phaseHint>PN</phaseHint>
      <evaluationMode>manual</evaluationMode>
      <evaluationStatus>rejected</evaluationStatus>
    </pick>
    <pick publicID="8146785">
      <time>
        <value>2011-05-03T00:01:22.167Z</value>
        <lowerUncertainty>0.25</lowerUncertainty>
        <upperUncertainty>0.5</upperUncertainty>
      </time>
      <waveformID channelCode="HHE" stationCode="CRLZ" networkCode="NZ"/>
      <phaseHint>SG</phaseHint>
      <evaluationMode>manual</evaluationMode>
      <evaluationStatus>confirmed</evaluationStatus>
    </pick>
    <pick publicID="7925715">
      <time>
        <value>2011-05-03T00:01:18.187Z</value>
        <upperUncertainty>0.1</upperUncertainty>
      </time>
      <waveformID channelCode="HHZ" stationCode="WVZ" networkCode="NZ"/>
      <phaseHint>P*</phaseHint>
      <polarity>negative</polarity>
      <evaluationMode>automatic</evaluationMode>
      <evaluationStatus>confirmed</evaluationStatus>
    </pick>
    <pick publicID="7925721">
      <time>
        <value>2011-05-03T00:01:27.933Z</value>
        <lowerUncertainty>0.5</lowerUncertainty>
        <upperUncertainty>1.0</upperUncertainty>
      </time>
      <waveformID channelCode="HHZ" stationCode="THZ" networkCode="NZ"/>
      <phaseHint>PN</phaseHint>
      <evaluationMode>automatic</evaluationMode>
      <evaluationStatus>confirmed</evaluationStatus>
    </pick>
    <pick publicID="7928249">
      <time>
        <value>2011-05-03T00:01:15.777Z</value>
        <lowerUncertainty>0.5</lowerUncertainty>
        <upperUncertainty>1.0</upperUncertainty>
      </time>
      <waveformID channelCode="HHN" stationCode="LTZ" networkCode="NZ"/>
      <phaseHint>SG</phaseHint>
      <evaluationMode>manual</evaluationMode>
      <evaluationStatus>confirmed</evaluationStatus>
    </pick>
    <pick publicID="7925716">
      <time>
        <value>2011-05-03T00:01:12.338Z</value>
        <upperUncertainty>0.1</upperUncertainty>
      </time>
      <waveformID channelCode="HHZ" stationCode="INZ" networkCode="NZ"/>
      <phaseHint>P*</phaseHint>
      <polarity>negative</polarity>
      <evaluationMode>automatic</evaluationMode>
      <evaluationStatus>confirmed</evaluationStatus>
    </pick>
    <amplitude publicID="32399044">
      <type>AML</type>
      <amplitude>
        <value>16612.145000</value>
      </amplitude>
      <timeWindow>
        <reference>2011-05-03T00:01:07.088Z</reference>
        <begin>0</begin>
        <end>0</end>
      </timeWindow>
      <unit>dimensionless</unit>
      <waveformID channelCode="HHZ" stationCode="OXZ" networkCode="NZ"/>
      <evaluationMode>automatic</evaluationMode>
    </amplitude>
    <amplitude publicID="32399045">
      <type>A</type>
      <amplitude>
        <value>0.002144</value>
      </amplitude>
      <timeWindow>
        <reference>2011-05-03T00:01:07.158Z</reference>
        <begin>0</begin>
        <end>0</end>
      </timeWindow>
      <unit>m</unit>
      <waveformID channelCode="HHZ" stationCode="OXZ" networkCode="NZ"/>
      <evaluationMode>automatic</evaluationMode>
    </amplitude>
    <amplitude publicID="32399046">
      <type>A</type>
      <amplitude>
        <value>0.000060</value>
      </amplitude>
      <timeWindow>
        <reference>2011-05-03T00:01:04.338Z</reference>
        <begin>0</begin>
        <end>0</end>
      </timeWindow>
      <unit>m/s</unit>
      <waveformID channelCode="HHZ" stationCode="OXZ" networkCode="NZ"/>
      <evaluationMode>automatic</evaluationMode>
    </amplitude>
    <amplitude publicID="32399047">
      <type>A</type>
      <amplitude>
        <value>0.014122</value>
      </amplitude>
      <timeWindow>
        <reference>2011-05-03T00:01:04.318Z</reference>
        <begin>0</begin>
        <end>0</end>
      </timeWindow>
      <unit>m/(s*s)</unit>
      <waveformID channelCode="HHZ" stationCode="OXZ" networkCode="NZ"/>
      <evaluationMode>automatic</evaluationMode>
    </amplitude>
    <amplitude publicID="32399048">
      <type>A</type>
      <amplitude>
        <value>21436.277000</value>
      </amplitude>
      <timeWindow>
        <reference>2011-05-03T00:01:07.048Z</reference>
        <begin>0</begin>
        <end>0</end>
      </timeWindow>
      <unit>dimensionless</unit>
      <waveformID channelCode="HHN" stationCode="OXZ" networkCode="NZ"/>
      <evaluationMode>automatic</evaluationMode>
    </amplitude>
    <amplitude publicID="32399049">
      <type>AML</type>
      <amplitude>
        <value>0.001942</value>
      </amplitude>
      <timeWindow>
        <reference>2011-05-03T00:01:07.328Z</reference>
        <begin>0</begin>
        <end>0</end>
      </timeWindow>
      <unit>m</unit>
      <waveformID channelCode="HHN" stationCode="OXZ" networkCode="NZ"/>
      <evaluationMode>automatic</evaluationMode>
    </amplitude>
    <amplitude publicID="32399050">
      <type>A</type>
      <amplitude>
        <value>0.000060</value>
      </amplitude>
      <timeWindow>
        <reference>2011-05-03T00:01:06.958Z</reference>
        <begin>0</begin>
        <end>0</end>
      </timeWindow>
      <unit>m/s</unit>
      <waveformID channelCode="HHN" stationCode="OXZ" networkCode="NZ"/>
      <evaluationMode>automatic</evaluationMode>
    </amplitude>
    <amplitude publicID="32399051">
      <type>A</type>
      <amplitude>
        <value>0.012651</value>
      </amplitude>
      <timeWindow>
        <reference>2011-05-03T00:01:04.678Z</reference>
        <begin>0</begin>
        <end>0</end>
      </timeWindow>
      <unit>m/(s*s)</unit>
      <waveformID channelCode="HHN" stationCode="OXZ" networkCode="NZ"/>
      <evaluationMode>automatic</evaluationMode>
    </amplitude>
    <amplitude publicID="32399052">
      <type>A</type>
      <amplitude>
        <value>38450.711000</value>
      </amplitude>
      <timeWindow>
        <reference>2011-05-03T00:01:06.968Z</reference>
        <begin>0</begin>
        <end>0</end>
      </timeWindow>
      <unit>dimensionless</unit>
      <waveformID channelCode="HHE" stationCode="OXZ" networkCode="NZ"/>
      <evaluationMode>automatic</evaluationMode>
    </amplitude>
    <amplitude publicID="32399053">
      <type>AML</type>
      <amplitude>
        <value>0.003760</value>
      </amplitude>
      <timeWindow>
        <reference>2011-05-03T00:01:06.778Z</reference>
        <begin>0</begin>
        <end>0</end>
      </timeWindow>
      <unit>m</unit>
      <waveformID channelCode="HHE" stationCode="OXZ" networkCode="NZ"/>
      <evaluationMode>automatic</evaluationMode>
    </amplitude>
    <amplitude publicID="32399054">
      <type>A</type>
      <amplitude>
        <value>0.000110</value>
      </amplitude>
      <timeWindow>
        <reference>2011-05-03T00:01:04.358Z</reference>
        <begin>0</begin>
        <end>0</end>
      </timeWindow>
      <unit>m/s</unit>
      <waveformID channelCode="HHE" stationCode="OXZ" networkCode="NZ"/>
      <evaluationMode>automatic</evaluationMode>
    </amplitude>
    <amplitude publicID="32399055">
      <type>A</type>
      <amplitude>
        <value>0.029812</value>
      </amplitude>
      <timeWindow>
        <reference>2011-05-03T00:01:04.378Z</reference>
        <begin>0</begin>
        <end>0</end>
      </timeWindow>
      <unit>m/(s*s)</unit>
      <waveformID channelCode="HHE" stationCode="OXZ" networkCode="NZ"/>
      <evaluationMode>automatic</evaluationMode>
    </amplitude>
    <amplitude publicID="32399062">
      <type>AML</type>
      <amplitude>
        <value>1272.921000</value>
      </amplitude>
      <timeWindow>
        <reference>2011-05-03T00:01:31.939Z</reference>
        <begin>0</begin>
        <end>0</end>
      </timeWindow>
      <unit>dimensionless</unit>
      <waveformID channelCode="HHZ" stationCode="RPZ" networkCode="NZ"/>
      <evaluationMode>automatic</evaluationMode>
    </amplitude>
    <amplitude publicID="32399063">
      <type>A</type>
      <amplitude>
        <value>0.000064</value>
      </amplitude>
      <timeWindow>
        <reference>2011-05-03T00:01:19.669Z</reference>
        <begin>0</begin>
        <end>0</end>
      </timeWindow>
      <unit>m</unit>
      <waveformID channelCode="HHZ" stationCode="RPZ" networkCode="NZ"/>
      <evaluationMode>automatic</evaluationMode>
    </amplitude>
    <amplitude publicID="32399064">
      <type>A</type>
      <amplitude>
        <value>1749.055000</value>
      </amplitude>
      <timeWindow>
        <reference>2011-05-03T00:01:30.209Z</reference>
        <begin>0</begin>
        <end>0</end>
      </timeWindow>
      <unit>dimensionless</unit>
      <waveformID channelCode="HH1" stationCode="RPZ" networkCode="NZ"/>
      <evaluationMode>automatic</evaluationMode>
    </amplitude>
    <amplitude publicID="32399065">
      <type>AML</type>
      <amplitude>
        <value>0.000057</value>
      </amplitude>
      <timeWindow>
        <reference>2011-05-03T00:01:30.529Z</reference>
        <begin>0</begin>
        <end>0</end>
      </timeWindow>
      <unit>m</unit>
      <waveformID channelCode="HH1" stationCode="RPZ" networkCode="NZ"/>
      <evaluationMode>automatic</evaluationMode>
    </amplitude>
    <amplitude publicID="32399066">
      <type>A</type>
      <amplitude>
        <value>0.000098</value>
      </amplitude>
      <timeWindow>
        <reference>2011-05-03T00:01:07.049Z</reference>
        <begin>0</begin>
        <end>0</end>
      </timeWindow>
      <unit>m/(s*s)</unit>
      <waveformID channelCode="HH1" stationCode="RPZ" networkCode="NZ"/>
      <evaluationMode>automatic</evaluationMode>
    </amplitude>
    <amplitude publicID="32399067">
      <type>A</type>
      <amplitude>
        <value>1487.117000</value>
      </amplitude>
      <timeWindow>
        <reference>2011-05-03T00:01:30.409Z</reference>
        <begin>0</begin>
        <end>0</end>
      </timeWindow>
      <unit>dimensionless</unit>
      <waveformID channelCode="HH2" stationCode="RPZ" networkCode="NZ"/>
      <evaluationMode>manual</evaluationMode>
    </amplitude>
    <amplitude publicID="32399069">
      <type>AML</type>
      <amplitude>
        <value>2206.202000</value>
      </amplitude>
      <timeWindow>
        <reference>2011-05-03T00:01:10.097Z</reference>
        <begin>0</begin>
        <end>0</end>
      </timeWindow>
      <unit>dimensionless</unit>
      <waveformID channelCode="HHZ" stationCode="LTZ" networkCode="NZ"/>
      <evaluationMode>automatic</evaluationMode>
    </amplitude>
    <amplitude publicID="32399070">
      <type>A</type>
      <amplitude>
        <value>0.000178</value>
      </amplitude>
      <timeWindow>
        <reference>2011-05-03T00:01:09.647Z</reference>
        <begin>0</begin>
        <end>0</end>
      </timeWindow>
      <unit>m</unit>
      <waveformID channelCode="HHZ" stationCode="LTZ" networkCode="NZ"/>
      <evaluationMode>automatic</evaluationMode>
    </amplitude>
    <amplitude publicID="32399071">
      <type>A</type>
      <amplitude>
        <value>0.000010</value>
      </amplitude>
      <timeWindow>
        <reference>2011-05-03T00:01:10.097Z</reference>
        <begin>0</begin>
        <end>0</end>
      </timeWindow>
      <unit>m/s</unit>
      <waveformID channelCode="HHZ" stationCode="LTZ" networkCode="NZ"/>
      <evaluationMode>automatic</evaluationMode>
    </amplitude>
    <amplitude publicID="32399072">
      <type>A</type>
      <amplitude>
        <value>0.000883</value>
      </amplitude>
      <timeWindow>
        <reference>2011-05-03T00:01:10.197Z</reference>
        <begin>0</begin>
        <end>0</end>
      </timeWindow>
      <unit>m/(s*s)</unit>
      <waveformID channelCode="HHZ" stationCode="LTZ" networkCode="NZ"/>
      <evaluationMode>automatic</evaluationMode>
    </amplitude>
    <amplitude publicID="32399073">
      <type>A</type>
      <amplitude>
        <value>2722.019000</value>
      </amplitude>
      <timeWindow>
        <reference>2011-05-03T00:01:16.267Z</reference>
        <begin>0</begin>
        <end>0</end>
      </timeWindow>
      <unit>dimensionless</unit>
      <waveformID channelCode="HHN" stationCode="LTZ" networkCode="NZ"/>
      <evaluationMode>automatic</evaluationMode>
    </amplitude>
    <amplitude publicID="32399074">
      <type>AML</type>
      <amplitude>
        <value>0.000286</value>
      </amplitude>
      <timeWindow>
        <reference>2011-05-03T00:01:15.927Z</reference>
        <begin>0</begin>
        <end>0</end>
      </timeWindow>
      <unit>m</unit>
      <waveformID channelCode="HHN" stationCode="LTZ" networkCode="NZ"/>
      <evaluationMode>automatic</evaluationMode>
    </amplitude>
    <amplitude publicID="32399075">
      <type>A</type>
      <amplitude>
        <value>0.000010</value>
      </amplitude>
      <timeWindow>
        <reference>2011-05-03T00:02:20.337Z</reference>
        <begin>0</begin>
        <end>0</end>
      </timeWindow>
      <unit>m/s</unit>
      <waveformID channelCode="HHN" stationCode="LTZ" networkCode="NZ"/>
      <evaluationMode>automatic</evaluationMode>
    </amplitude>
    <amplitude publicID="32399076">
      <type>A</type>
      <amplitude>
        <value>0.001177</value>
      </amplitude>
      <timeWindow>
        <reference>2011-05-03T00:02:20.317Z</reference>
        <begin>0</begin>
        <end>0</end>
      </timeWindow>
      <unit>m/(s*s)</unit>
      <waveformID channelCode="HHN" stationCode="LTZ" networkCode="NZ"/>
      <evaluationMode>automatic</evaluationMode>
    </amplitude>
    <amplitude publicID="32399077">
      <type>A</type>
      <amplitude>
        <value>3228.885000</value>
      </amplitude>
      <timeWindow>
        <reference>2011-05-03T00:01:16.597Z</reference>
        <begin>0</begin>
        <end>0</end>
      </timeWindow>
      <unit>dimensionless</unit>
      <waveformID channelCode="HHE" stationCode="LTZ" networkCode="NZ"/>
      <evaluationMode>automatic</evaluationMode>
    </amplitude>
    <amplitude publicID="32399078">
      <type>A</type>
      <amplitude>
        <value>0.000298</value>
      </amplitude>
      <timeWindow>
        <reference>2011-05-03T00:01:16.557Z</reference>
        <begin>0</begin>
        <end>0</end>
      </timeWindow>
      <unit>m</unit>
      <waveformID channelCode="HHE" stationCode="LTZ" networkCode="NZ"/>
      <evaluationMode>automatic</evaluationMode>
    </amplitude>
    <amplitude publicID="32399079">
      <type>A</type>
      <amplitude>
        <value>0.000981</value>
      </amplitude>
      <timeWindow>
        <reference>2011-05-03T00:01:10.257Z</reference>
        <begin>0</begin>
        <end>0</end>
      </timeWindow>
      <unit>m/(s*s)</unit>
      <waveformID channelCode="HHE" stationCode="LTZ" networkCode="NZ"/>
      <evaluationMode>automatic</evaluationMode>
    </amplitude>
    <amplitude publicID="32399080">
      <type>AML</type>
      <amplitude>
        <value>212.335000</value>
      </amplitude>
      <timeWindow>
        <reference>2011-05-03T00:01:20.097Z</reference>
        <begin>0</begin>
        <end>0</end>
      </timeWindow>
      <unit>dimensionless</unit>
      <waveformID channelCode="HHZ" stationCode="WVZ" networkCode="NZ"/>
      <evaluationMode>automatic</evaluationMode>
    </amplitude>
    <amplitude publicID="32399081">
      <type>A</type>
      <amplitude>
        <value>0.000070</value>
      </amplitude>
      <timeWindow>
        <reference>2011-05-03T00:01:19.887Z</reference>
        <begin>0</begin>
        <end>0</end>
      </timeWindow>
      <unit>m</unit>
      <waveformID channelCode="HHZ" stationCode="WVZ" networkCode="NZ"/>
      <evaluationMode>automatic</evaluationMode>
    </amplitude>
    <amplitude publicID="32399082">
      <type>A</type>
      <amplitude>
        <value>313.771000</value>
      </amplitude>
      <timeWindow>
        <reference>2011-05-03T00:01:34.667Z</reference>
        <begin>0</begin>
        <end>0</end>
      </timeWindow>
      <unit>dimensionless</unit>
      <waveformID channelCode="HHN" stationCode="WVZ" networkCode="NZ"/>
      <evaluationMode>automatic</evaluationMode>
    </amplitude>
    <amplitude publicID="32399083">
      <type>AML</type>
      <amplitude>
        <value>0.000090</value>
      </amplitude>
      <timeWindow>
        <reference>2011-05-03T00:01:34.627Z</reference>
        <begin>0</begin>
        <end>0</end>
      </timeWindow>
      <unit>m</unit>
      <waveformID channelCode="HHN" stationCode="WVZ" networkCode="NZ"/>
      <evaluationMode>automatic</evaluationMode>
    </amplitude>
    <amplitude publicID="32399084">
      <type>A</type>
      <amplitude>
        <value>209.886000</value>
      </amplitude>
      <timeWindow>
