<?xml version="1.0" encoding="UTF-8"?>
<seiscomp xmlns="http://geofon.gfz-potsdam.de/ns/seiscomp3-schema/0.5" version="0.5">
  <EventParameters>
    <pick publicID="20110613.022049.67-NZ.MQZ.10.HHZ">
      <time>
        <value>2011-06-13T02:20:49.678394Z</value>
      </time>
      <waveformID networkCode="NZ" stationCode="MQZ" locationCode="10" channelCode="HHZ"/>
      <methodID>Trigger</methodID>
      <phaseHint>P</phaseHint>
      <evaluationMode>automatic</evaluationMode>
      <creationInfo>
        <agencyID>WEL(Avalon)</agencyID>
        <author>scautopick@sc-av.geonet.org.nz</author>
        <creationTime>2011-06-13T02:20:55.410666Z</creationTime>
      </creationInfo>
    </pick>
    <pick publicID="20110613.022058.01-NZ.OXZ.10.HHZ">
      <time>
        <value>2011-06-13T02:20:58.018392Z</value>
      </time>
      <waveformID networkCode="NZ" stationCode="OXZ" locationCode="10" channelCode="HHZ"/>
      <methodID>Trigger</methodID>
      <phaseHint>P</phaseHint>
      <evaluationMode>automatic</evaluationMode>
      <creationInfo>
        <agencyID>WEL(Avalon)</agencyID>
        <author>scautopick@sc-av.geonet.org.nz</author>
        <creationTime>2011-06-13T02:21:03.234729Z</creationTime>
      </creationInfo>
    </pick>
    <pick publicID="20110613.022102.59-NZ.LTZ.10.HHZ">
      <time>
        <value>2011-06-13T02:21:02.596887Z</value>
      </time>
      <waveformID networkCode="NZ" stationCode="LTZ" locationCode="10" channelCode="HHZ"/>
      <methodID>Trigger</methodID>
      <phaseHint>P</phaseHint>
      <evaluationMode>automatic</evaluationMode>
      <creationInfo>
        <agencyID>WEL(Avalon)</agencyID>
        <author>scautopick@sc-av.geonet.org.nz</author>
        <creationTime>2011-06-13T02:21:11.262985Z</creationTime>
      </creationInfo>
    </pick>
    <pick publicID="20110613.022111.60-NZ.KHZ.10.HHZ">
      <time>
        <value>2011-06-13T02:21:11.608391Z</value>
      </time>
      <waveformID networkCode="NZ" stationCode="KHZ" locationCode="10" channelCode="HHZ"/>
      <methodID>Trigger</methodID>
      <phaseHint>P</phaseHint>
      <evaluationMode>automatic</evaluationMode>
      <creationInfo>
        <agencyID>WEL(Avalon)</agencyID>
        <author>scautopick@sc-av.geonet.org.nz</author>
        <creationTime>2011-06-13T02:21:23.896086Z</creationTime>
      </creationInfo>
    </pick>
    <pick publicID="20110613.022116.12-NZ.WVZ.10.HHZ">
      <time>
        <value>2011-06-13T02:21:16.126857Z</value>
      </time>
      <waveformID networkCode="NZ" stationCode="WVZ" locationCode="10" channelCode="HHZ"/>
      <methodID>Trigger</methodID>
      <phaseHint>P</phaseHint>
      <evaluationMode>automatic</evaluationMode>
      <creationInfo>
        <agencyID>WEL(Avalon)</agencyID>
        <author>scautopick@sc-av.geonet.org.nz</author>
        <creationTime>2011-06-13T02:21:24.398033Z</creationTime>
      </creationInfo>
    </pick>
    <pick publicID="20110613.022118.90-NZ.THZ.10.HHZ">
      <time>
        <value>2011-06-13T02:21:18.902881Z</value>
      </time>
      <waveformID networkCode="NZ" stationCode="THZ" locationCode="10" channelCode="HHZ"/>
      <methodID>Trigger</methodID>
      <phaseHint>P</phaseHint>
      <evaluationMode>automatic</evaluationMode>
      <creationInfo>
        <agencyID>WEL(Avalon)</agencyID>
        <author>scautopick@sc-av.geonet.org.nz</author>
        <creationTime>2011-06-13T02:21:24.597146Z</creationTime>
      </creationInfo>
    </pick>
    <pick publicID="20110613.022121.38-NZ.DSZ.10.HHZ">
      <time>
        <value>2011-06-13T02:21:21.388393Z</value>
      </time>
      <waveformID networkCode="NZ" stationCode="DSZ" locationCode="10" channelCode="HHZ"/>
      <methodID>Trigger</methodID>
      <phaseHint>P</phaseHint>
      <evaluationMode>automatic</evaluationMode>
      <creationInfo>
        <agencyID>WEL(Avalon)</agencyID>
        <author>scautopick@sc-av.geonet.org.nz</author>
        <creationTime>2011-06-13T02:21:25.504357Z</creationTime>
      </creationInfo>
    </pick>
    <pick publicID="20110613.022122.09-NZ.BSWZ.10.EHZ">
      <time>
        <value>2011-06-13T02:21:22.09839Z</value>
      </time>
      <waveformID networkCode="NZ" stationCode="BSWZ" locationCode="10" channelCode="EHZ"/>
      <methodID>Trigger</methodID>
      <phaseHint>P</phaseHint>
      <evaluationMode>automatic</evaluationMode>
      <creationInfo>
        <agencyID>WEL(Avalon)</agencyID>
        <author>scautopick@sc-av.geonet.org.nz</author>
        <creationTime>2011-06-13T02:21:25.501853Z</creationTime>
      </creationInfo>
    </pick>
    <pick publicID="20110613.022122.49-NZ.LBZ.10.HHZ">
      <time>
        <value>2011-06-13T02:21:22.498394Z</value>
      </time>
      <waveformID networkCode="NZ" stationCode="LBZ" locationCode="10" channelCode="HHZ"/>
      <methodID>Trigger</methodID>
      <phaseHint>P</phaseHint>
      <evaluationMode>automatic</evaluationMode>
      <creationInfo>
        <agencyID>WEL(Avalon)</agencyID>
        <author>scautopick@sc-av.geonet.org.nz</author>
        <creationTime>2011-06-13T02:21:24.197292Z</creationTime>
      </creationInfo>
    </pick>
    <pick publicID="20110613.022123.24-NZ.ODZ.10.HHZ">
      <time>
        <value>2011-06-13T02:21:23.248389Z</value>
      </time>
      <waveformID networkCode="NZ" stationCode="ODZ" locationCode="10" channelCode="HHZ"/>
      <methodID>Trigger</methodID>
      <phaseHint>P</phaseHint>
      <evaluationMode>automatic</evaluationMode>
      <creationInfo>
        <agencyID>WEL(Avalon)</agencyID>
        <author>scautopick@sc-av.geonet.org.nz</author>
        <creationTime>2011-06-13T02:21:28.605781Z</creationTime>
      </creationInfo>
    </pick>
    <pick publicID="20110613.022111.25-NZ.RPZ.10.HHZ">
      <time>
        <value>2011-06-13T02:21:11.258841Z</value>
      </time>
      <waveformID networkCode="NZ" stationCode="RPZ" locationCode="10" channelCode="HHZ"/>
      <methodID>Trigger</methodID>
      <phaseHint>P</phaseHint>
      <evaluationMode>automatic</evaluationMode>
      <creationInfo>
        <agencyID>WEL(Avalon)</agencyID>
        <author>scautopick@sc-av.geonet.org.nz</author>
        <creationTime>2011-06-13T02:21:19.076342Z</creationTime>
      </creationInfo>
    </pick>
    <pick publicID="20110613.022124.14-NZ.CMWZ.10.EHZ">
      <time>
        <value>2011-06-13T02:21:24.148395Z</value>
      </time>
      <waveformID networkCode="NZ" stationCode="CMWZ" locationCode="10" channelCode="EHZ"/>
      <methodID>Trigger</methodID>
      <phaseHint>P</phaseHint>
      <evaluationMode>automatic</evaluationMode>
      <creationInfo>
        <agencyID>WEL(Avalon)</agencyID>
        <author>scautopick@sc-av.geonet.org.nz</author>
        <creationTime>2011-06-13T02:21:26.302962Z</creationTime>
      </creationInfo>
    </pick>
    <pick publicID="20110613.022124.98-NZ.FOZ.10.HHZ">
      <time>
        <value>2011-06-13T02:21:24.988391Z</value>
      </time>
      <waveformID networkCode="NZ" stationCode="FOZ" locationCode="10" channelCode="HHZ"/>
      <methodID>Trigger</methodID>
      <phaseHint>P</phaseHint>
      <evaluationMode>automatic</evaluationMode>
      <creationInfo>
        <agencyID>WEL(Avalon)</agencyID>
        <author>scautopick@sc-av.geonet.org.nz</author>
        <creationTime>2011-06-13T02:21:31.214871Z</creationTime>
      </creationInfo>
    </pick>
    <pick publicID="20110613.022125.75-NZ.TUWZ.10.EHZ">
      <time>
        <value>2011-06-13T02:21:25.758396Z</value>
      </time>
      <waveformID networkCode="NZ" stationCode="TUWZ" locationCode="10" channelCode="EHZ"/>
      <methodID>Trigger</methodID>
      <phaseHint>P</phaseHint>
      <evaluationMode>automatic</evaluationMode>
      <creationInfo>
        <agencyID>WEL(Avalon)</agencyID>
        <author>scautopick@sc-av.geonet.org.nz</author>
        <creationTime>2011-06-13T02:21:30.3109Z</creationTime>
      </creationInfo>
    </pick>
    <pick publicID="20110613.022127.45-NZ.NNZ.10.HHZ">
      <time>
        <value>2011-06-13T02:21:27.458404Z</value>
      </time>
      <waveformID networkCode="NZ" stationCode="NNZ" locationCode="10" channelCode="HHZ"/>
      <methodID>Trigger</methodID>
      <phaseHint>P</phaseHint>
      <evaluationMode>automatic</evaluationMode>
      <creationInfo>
        <agencyID>WEL(Avalon)</agencyID>
        <author>scautopick@sc-av.geonet.org.nz</author>
        <creationTime>2011-06-13T02:21:29.206248Z</creationTime>
      </creationInfo>
    </pick>
    <pick publicID="20110613.022129.45-NZ.TCW.10.EHZ">
      <time>
        <value>2011-06-13T02:21:29.458388Z</value>
      </time>
      <waveformID networkCode="NZ" stationCode="TCW" locationCode="10" channelCode="EHZ"/>
      <methodID>Trigger</methodID>
      <phaseHint>P</phaseHint>
      <evaluationMode>automatic</evaluationMode>
      <creationInfo>
        <agencyID>WEL(Avalon)</agencyID>
        <author>scautopick@sc-av.geonet.org.nz</author>
        <creationTime>2011-06-13T02:21:33.719146Z</creationTime>
      </creationInfo>
    </pick>
    <pick publicID="20110613.022130.64-NZ.BHW.10.EHZ">
      <time>
        <value>2011-06-13T02:21:30.648393Z</value>
      </time>
      <waveformID networkCode="NZ" stationCode="BHW" locationCode="10" channelCode="EHZ"/>
      <methodID>Trigger</methodID>
      <phaseHint>P</phaseHint>
      <evaluationMode>automatic</evaluationMode>
      <creationInfo>
        <agencyID>WEL(Avalon)</agencyID>
        <author>scautopick@sc-av.geonet.org.nz</author>
        <creationTime>2011-06-13T02:21:34.222163Z</creationTime>
      </creationInfo>
    </pick>
    <pick publicID="20110613.022130.79-NZ.PLWZ.10.EHZ">
      <time>
        <value>2011-06-13T02:21:30.798392Z</value>
      </time>
      <waveformID networkCode="NZ" stationCode="PLWZ" locationCode="10" channelCode="EHZ"/>
      <methodID>Trigger</methodID>
      <phaseHint>P</phaseHint>
      <evaluationMode>automatic</evaluationMode>
      <creationInfo>
        <agencyID>WEL(Avalon)</agencyID>
        <author>scautopick@sc-av.geonet.org.nz</author>
        <creationTime>2011-06-13T02:21:34.42453Z</creationTime>
      </creationInfo>
    </pick>
    <pick publicID="20110613.022131.56-NZ.WEL.10.HHZ">
      <time>
        <value>2011-06-13T02:21:31.568393Z</value>
      </time>
      <waveformID networkCode="NZ" stationCode="WEL" locationCode="10" channelCode="HHZ"/>
      <methodID>Trigger</methodID>
      <phaseHint>P</phaseHint>
      <evaluationMode>automatic</evaluationMode>
      <creationInfo>
        <agencyID>WEL(Avalon)</agencyID>
        <author>scautopick@sc-av.geonet.org.nz</author>
        <creationTime>2011-06-13T02:21:36.834625Z</creationTime>
      </creationInfo>
    </pick>
    <pick publicID="20110613.022132.18-NZ.QRZ.10.HHZ">
      <time>
        <value>2011-06-13T02:21:32.188392Z</value>
      </time>
      <waveformID networkCode="NZ" stationCode="QRZ" locationCode="10" channelCode="HHZ"/>
      <methodID>Trigger</methodID>
      <phaseHint>P</phaseHint>
      <evaluationMode>automatic</evaluationMode>
      <creationInfo>
        <agencyID>WEL(Avalon)</agencyID>
        <author>scautopick@sc-av.geonet.org.nz</author>
        <creationTime>2011-06-13T02:21:35.730749Z</creationTime>
      </creationInfo>
    </pick>
    <pick publicID="20110613.022132.76-NZ.MSWZ.10.EHZ">
      <time>
        <value>2011-06-13T02:21:32.768396Z</value>
      </time>
      <waveformID networkCode="NZ" stationCode="MSWZ" locationCode="10" channelCode="EHZ"/>
      <methodID>Trigger</methodID>
      <phaseHint>P</phaseHint>
      <evaluationMode>automatic</evaluationMode>
      <creationInfo>
        <agencyID>WEL(Avalon)</agencyID>
        <author>scautopick@sc-av.geonet.org.nz</author>
        <creationTime>2011-06-13T02:21:35.327949Z</creationTime>
      </creationInfo>
    </pick>
    <pick publicID="20110613.022132.93-NZ.OPZ.10.HHZ">
      <time>
        <value>2011-06-13T02:21:32.938392Z</value>
      </time>
      <waveformID networkCode="NZ" stationCode="OPZ" locationCode="10" channelCode="HHZ"/>
      <methodID>Trigger</methodID>
      <phaseHint>P</phaseHint>
      <evaluationMode>automatic</evaluationMode>
      <creationInfo>
        <agencyID>WEL(Avalon)</agencyID>
        <author>scautopick@sc-av.geonet.org.nz</author>
        <creationTime>2011-06-13T02:21:39.745208Z</creationTime>
      </creationInfo>
    </pick>
    <pick publicID="20110613.022133.85-NZ.PAWZ.10.EHZ">
      <time>
        <value>2011-06-13T02:21:33.858396Z</value>
      </time>
      <waveformID networkCode="NZ" stationCode="PAWZ" locationCode="10" channelCode="EHZ"/>
      <methodID>Trigger</methodID>
      <phaseHint>P</phaseHint>
      <evaluationMode>automatic</evaluationMode>
      <creationInfo>
        <agencyID>WEL(Avalon)</agencyID>
        <author>scautopick@sc-av.geonet.org.nz</author>
        <creationTime>2011-06-13T02:21:37.439605Z</creationTime>
      </creationInfo>
    </pick>
    <pick publicID="20110613.022134.64-NZ.CAW.10.EHZ">
      <time>
        <value>2011-06-13T02:21:34.648391Z</value>
      </time>
      <waveformID networkCode="NZ" stationCode="CAW" locationCode="10" channelCode="EHZ"/>
      <methodID>Trigger</methodID>
      <phaseHint>P</phaseHint>
      <evaluationMode>automatic</evaluationMode>
      <creationInfo>
        <agencyID>WEL(Avalon)</agencyID>
        <author>scautopick@sc-av.geonet.org.nz</author>
        <creationTime>2011-06-13T02:21:37.237962Z</creationTime>
      </creationInfo>
    </pick>
    <pick publicID="20110613.022134.91-NZ.JCZ.10.HHZ">
      <time>
        <value>2011-06-13T02:21:34.91839Z</value>
      </time>
      <waveformID networkCode="NZ" stationCode="JCZ" locationCode="10" channelCode="HHZ"/>
      <methodID>Trigger</methodID>
      <phaseHint>P</phaseHint>
      <evaluationMode>automatic</evaluationMode>
      <creationInfo>
        <agencyID>WEL(Avalon)</agencyID>
        <author>scautopick@sc-av.geonet.org.nz</author>
        <creationTime>2011-06-13T02:21:39.545687Z</creationTime>
      </creationInfo>
    </pick>
    <pick publicID="20110613.022135.30-NZ.EAZ.10.HHZ">
      <time>
        <value>2011-06-13T02:21:35.308388Z</value>
      </time>
      <waveformID networkCode="NZ" stationCode="EAZ" locationCode="10" channelCode="HHZ"/>
      <methodID>Trigger</methodID>
      <phaseHint>P</phaseHint>
      <evaluationMode>automatic</evaluationMode>
      <creationInfo>
        <agencyID>WEL(Avalon)</agencyID>
        <author>scautopick@sc-av.geonet.org.nz</author>
        <creationTime>2011-06-13T02:21:37.437428Z</creationTime>
      </creationInfo>
    </pick>
    <pick publicID="20110613.022135.35-NZ.WKZ.10.HHZ">
      <time>
        <value>2011-06-13T02:21:35.358392Z</value>
      </time>
      <waveformID networkCode="NZ" stationCode="WKZ" locationCode="10" channelCode="HHZ"/>
      <methodID>Trigger</methodID>
      <phaseHint>P</phaseHint>
      <evaluationMode>automatic</evaluationMode>
      <creationInfo>
        <agencyID>WEL(Avalon)</agencyID>
        <author>scautopick@sc-av.geonet.org.nz</author>
        <creationTime>2011-06-13T02:21:42.255902Z</creationTime>
      </creationInfo>
    </pick>
    <pick publicID="20110613.022135.85-NZ.TRWZ.10.EHZ">
      <time>
        <value>2011-06-13T02:21:35.858393Z</value>
      </time>
      <waveformID networkCode="NZ" stationCode="TRWZ" locationCode="10" channelCode="EHZ"/>
      <methodID>Trigger</methodID>
      <phaseHint>P</phaseHint>
      <evaluationMode>automatic</evaluationMode>
      <creationInfo>
        <agencyID>WEL(Avalon)</agencyID>
        <author>scautopick@sc-av.geonet.org.nz</author>
        <creationTime>2011-06-13T02:21:37.236079Z</creationTime>
      </creationInfo>
    </pick>
    <pick publicID="20110613.022136.29-NZ.MTW.10.EHZ">
      <time>
        <value>2011-06-13T02:21:36.298395Z</value>
      </time>
      <waveformID networkCode="NZ" stationCode="MTW" locationCode="10" channelCode="EHZ"/>
      <methodID>Trigger</methodID>
      <phaseHint>P</phaseHint>
      <evaluationMode>automatic</evaluationMode>
      <creationInfo>
        <agencyID>WEL(Avalon)</agencyID>
        <author>scautopick@sc-av.geonet.org.nz</author>
        <creationTime>2011-06-13T02:21:37.336474Z</creationTime>
      </creationInfo>
    </pick>
    <pick publicID="20110613.022136.87-NZ.KIW.10.EHZ">
      <time>
        <value>2011-06-13T02:21:36.878393Z</value>
      </time>
      <waveformID networkCode="NZ" stationCode="KIW" locationCode="10" channelCode="EHZ"/>
      <methodID>Trigger</methodID>
      <phaseHint>P</phaseHint>
      <evaluationMode>automatic</evaluationMode>
      <creationInfo>
        <agencyID>WEL(Avalon)</agencyID>
        <author>scautopick@sc-av.geonet.org.nz</author>
        <creationTime>2011-06-13T02:21:40.146972Z</creationTime>
      </creationInfo>
    </pick>
    <pick publicID="20110613.022138.54-NZ.OGWZ.10.EHZ">
      <time>
        <value>2011-06-13T02:21:38.548393Z</value>
      </time>
      <waveformID networkCode="NZ" stationCode="OGWZ" locationCode="10" channelCode="EHZ"/>
      <methodID>Trigger</methodID>
      <phaseHint>P</phaseHint>
      <evaluationMode>automatic</evaluationMode>
      <creationInfo>
        <agencyID>WEL(Avalon)</agencyID>
        <author>scautopick@sc-av.geonet.org.nz</author>
        <creationTime>2011-06-13T02:21:40.149766Z</creationTime>
      </creationInfo>
    </pick>
    <pick publicID="20110613.022139.05-NZ.TUZ.10.HHZ">
      <time>
        <value>2011-06-13T02:21:39.058393Z</value>
      </time>
      <waveformID networkCode="NZ" stationCode="TUZ" locationCode="10" channelCode="HHZ"/>
      <methodID>Trigger</methodID>
      <phaseHint>P</phaseHint>
      <evaluationMode>automatic</evaluationMode>
      <creationInfo>
        <agencyID>WEL(Avalon)</agencyID>
        <author>scautopick@sc-av.geonet.org.nz</author>
        <creationTime>2011-06-13T02:21:42.859118Z</creationTime>
      </creationInfo>
    </pick>
    <pick publicID="20110613.022139.52-NZ.HOWZ.10.EHZ">
      <time>
        <value>2011-06-13T02:21:39.528393Z</value>
      </time>
      <waveformID networkCode="NZ" stationCode="HOWZ" locationCode="10" channelCode="EHZ"/>
      <methodID>Trigger</methodID>
      <phaseHint>P</phaseHint>
      <evaluationMode>automatic</evaluationMode>
      <creationInfo>
        <agencyID>WEL(Avalon)</agencyID>
        <author>scautopick@sc-av.geonet.org.nz</author>
        <creationTime>2011-06-13T02:21:44.564956Z</creationTime>
      </creationInfo>
    </pick>
    <pick publicID="20110613.022139.98-NZ.TMWZ.10.EHZ">
      <time>
        <value>2011-06-13T02:21:39.988392Z</value>
      </time>
      <waveformID networkCode="NZ" stationCode="TMWZ" locationCode="10" channelCode="EHZ"/>
      <methodID>Trigger</methodID>
      <phaseHint>P</phaseHint>
      <evaluationMode>automatic</evaluationMode>
      <creationInfo>
        <agencyID>WEL(Avalon)</agencyID>
        <author>scautopick@sc-av.geonet.org.nz</author>
        <creationTime>2011-06-13T02:21:42.357243Z</creationTime>
      </creationInfo>
    </pick>
    <pick publicID="20110613.022142.66-NZ.MRZ.10.HHZ">
      <time>
        <value>2011-06-13T02:21:42.668394Z</value>
      </time>
      <waveformID networkCode="NZ" stationCode="MRZ" locationCode="10" channelCode="HHZ"/>
      <methodID>Trigger</methodID>
      <phaseHint>P</phaseHint>
      <evaluationMode>automatic</evaluationMode>
      <creationInfo>
        <agencyID>WEL(Avalon)</agencyID>
        <author>scautopick@sc-av.geonet.org.nz</author>
        <creationTime>2011-06-13T02:21:55.40095Z</creationTime>
      </creationInfo>
    </pick>
    <pick publicID="20110613.022144.65-NZ.TIWZ.10.EHZ">
      <time>
        <value>2011-06-13T02:21:44.658395Z</value>
      </time>
      <waveformID networkCode="NZ" stationCode="TIWZ" locationCode="10" channelCode="EHZ"/>
      <methodID>Trigger</methodID>
      <phaseHint>P</phaseHint>
      <evaluationMode>automatic</evaluationMode>
      <creationInfo>
